NORAD_CAT_ID,OBJECT_NAME,OBJECT_TYPE,EPOCH,MEAN_MOTION,ECCENTRICITY,INCLINATION,RA_OF_ASC_NODE,ARG_OF_PERICENTER,MEAN_ANOMALY,BSTAR,MEAN_MOTION_DOT,MEAN_MOTION_DDOT,TLE_LINE0,TLE_LINE1,TLE_LINE2,SEMIMAJOR_AXIS,PERIOD,APOGEE,PERIGEE,DECAYED
53184.0,STARLINK-4257,PAYLOAD,2023-08-01 17:30:19,15.08834295,0.0001099,53.216,72.7298,89.981,270.1308,-6.8118e-05,-1.372e-05,0.0,0 STARLINK-4257,1 53184U 22083BE  23213.72939229 -.00001372  00000-0 -68118-4 0  9993,2 53184  53.2160  72.7298 0001099  89.9810 270.1308 15.08834295 58996,6917.898,95.438,540.523,539.003,0.0
53184.0,STARLINK-4257,PAYLOAD,2023-08-01 23:51:53,15.08823306,0.0001094,53.2171,71.5411,95.6176,264.494,-7.1818e-05,-1.43e-05,0.0,0 STARLINK-4257,1 53184U 22083BE  23213.99436634 -.00001430  00000-0 -71818-4 0  9990,2 53184  53.2171  71.5411 0001094  95.6176 264.4940 15.08823306 59031,6917.931,95.439,540.553,539.04,0.0
53184.0,STARLINK-4257,PAYLOAD,2023-08-02 07:48:48,15.08832503,0.0001003,53.2171,70.0543,94.1897,265.921,-6.3458e-05,-1.297e-05,0.0,0 STARLINK-4257,1 53184U 22083BE  23214.32556214 -.00001297  00000-0 -63458-4 0  9997,2 53184  53.2171  70.0543 0001003  94.1897 265.9210 15.08832503 59085,6917.903,95.438,540.462,539.074,0.0
53184.0,STARLINK-4257,PAYLOAD,2023-08-02 18:56:30,15.08836666,0.0001031,53.2174,67.9721,84.5135,275.5974,0.00015619,2.199e-05,0.0,0 STARLINK-4257,1 53184U 22083BE  23214.78923728  .00002199  00000-0  15619-3 0  9990,2 53184  53.2174  67.9721 0001031  84.5135 275.5974 15.08836666 59156,6917.891,95.438,540.469,539.042,0.0
53184.0,STARLINK-4257,PAYLOAD,2023-08-02 22:07:15,15.08845774,9.85e-05,53.2172,67.3774,87.935,272.1754,0.00014277,1.985e-05,0.0,0 STARLINK-4257,1 53184U 22083BE  23214.92171248  .00001985  00000-0  14277-3 0  9999,2 53184  53.2172  67.3774 0000985  87.9350 272.1754 15.08845774 59170,6917.863,95.437,540.409,539.046,0.0
53184.0,STARLINK-4257,PAYLOAD,2023-08-03 18:47:17,15.08846301,0.0001022,53.2156,63.5131,79.6156,280.4951,0.00041837,6.378e-05,0.0,0 STARLINK-4257,1 53184U 22083BE  23215.78283701  .00006378  00000-0  41837-3 0  9995,2 53184  53.2156  63.5131 0001022  79.6156 280.4951 15.08846301 59305,6917.861,95.437,540.433,539.019,0.0
53184.0,STARLINK-4257,PAYLOAD,2023-08-04 18:38:03,15.08847764,0.000115,53.2161,59.0504,91.8938,268.2186,0.00015409,2.166e-05,0.0,0 STARLINK-4257,1 53184U 22083BE  23216.77643352  .00002166  00000-0  15409-3 0  9994,2 53184  53.2161  59.0504 0001150  91.8938 268.2186 15.08847764 59455,6917.857,95.437,540.517,538.926,0.0
53184.0,STARLINK-4257,PAYLOAD,2023-08-05 20:04:13,15.08852598,0.000107,53.2161,54.2943,84.4162,275.6952,9.5322e-05,1.23e-05,0.0,0 STARLINK-4257,1 53184U 22083BE  23217.83626672  .00001230  00000-0  95322-4 0  9992,2 53184  53.2161  54.2943 0001070  84.4162 275.6952 15.08852598 59619,6917.842,95.437,540.447,538.967,0.0
53184.0,STARLINK-4257,PAYLOAD,2023-08-06 05:36:32,15.08842006,0.000112,53.2156,52.5107,82.5535,277.5584,-7.6184e-05,-1.5e-05,0.0,0 STARLINK-4257,1 53184U 22083BE  23218.23370968 -.00001500  00000-0 -76184-4 0  9998,2 53184  53.2156  52.5107 0001120  82.5535 277.5584 15.08842006 59676,6917.874,95.437,540.514,538.964,0.0
53184.0,STARLINK-4257,PAYLOAD,2023-08-06 18:19:38,15.08821402,0.000106,53.2168,50.1322,75.9248,284.1862,-0.00020488,-3.545e-05,0.0,0 STARLINK-4257,1 53184U 22083BE  23218.76364537 -.00003545  00000-0 -20488-3 0  9997,2 53184  53.2168  50.1322 0001060  75.9248 284.1862 15.08821402 59751,6917.937,95.439,540.536,539.069,0.0
53184.0,STARLINK-4257,PAYLOAD,2023-08-07 05:27:21,15.08825784,0.0001162,53.2182,48.0508,92.868,267.2445,-6.8291e-05,-1.374e-05,0.0,0 STARLINK-4257,1 53184U 22083BE  23219.22732735 -.00001374  00000-0 -68291-4 0  9991,2 53184  53.2182  48.0508 0001162  92.8680 267.2445 15.08825784 59824,6917.924,95.438,540.593,538.985,0.0
53184.0,STARLINK-4257,PAYLOAD,2023-08-07 19:45:49,15.08842939,9.94e-05,53.2175,45.3742,80.4391,279.6713,0.00034545,5.215e-05,0.0,0 STARLINK-4257,1 53184U 22083BE  23219.82348490  .00005215  00000-0  34545-3 0  9998,2 53184  53.2175  45.3742 0000994  80.4391 279.6713 15.08842939 59916,6917.871,95.437,540.424,539.049,0.0
53184.0,STARLINK-4257,PAYLOAD,2023-08-08 21:11:58,15.08872346,9.52e-05,53.2172,40.6164,79.3871,280.7229,0.0009331,0.00014607,0.0,0 STARLINK-4257,1 53184U 22083BE  23220.88331608  .00014607  00000-0  93310-3 0  9999,2 53184  53.2172  40.6164 0000952  79.3871 280.7229 15.08872346 60072,6917.782,95.436,540.305,538.988,0.0
53184.0,STARLINK-4257,PAYLOAD,2023-08-09 05:08:54,15.08856142,7.41e-05,53.2169,39.1295,83.1154,276.9923,0.00015146,2.125e-05,0.0,0 STARLINK-4257,1 53184U 22083BE  23221.21451407  .00002125  00000-0  15146-3 0  9990,2 53184  53.2169  39.1295 0000741  83.1154 276.9923 15.08856142 60129,6917.831,95.437,540.209,539.183,0.0
53184.0,STARLINK-4257,PAYLOAD,2023-08-09 17:51:59,15.08848512,9.22e-05,53.2177,36.7515,85.323,274.7868,0.00019846,2.873e-05,0.0,0 STARLINK-4257,1 53184U 22083BE  23221.74443544  .00002873  00000-0  19846-3 0  9992,2 53184  53.2177  36.7515 0000922  85.3230 274.7868 15.08848512 60201,6917.854,95.437,540.357,539.082,0.0
53184.0,STARLINK-4257,PAYLOAD,2023-08-10 11:21:13,15.08841442,9.53e-05,53.2163,33.4793,85.5726,274.5375,0.00014973,2.096e-05,0.0,0 STARLINK-4257,1 53184U 22083BE  23222.47307786  .00002096  00000-0  14973-3 0  9993,2 53184  53.2163  33.4793 0000953  85.5726 274.5375 15.08841442 60312,6917.876,95.437,540.4,539.082,0.0
53184.0,STARLINK-4257,PAYLOAD,2023-08-11 17:33:33,15.08843786,9.91e-05,53.2171,27.829,93.8407,266.2699,0.0001385,1.917e-05,0.0,0 STARLINK-4257,1 53184U 22083BE  23223.73163770  .00001917  00000-0  13850-3 0  9990,2 53184  53.2171  27.8290 0000991  93.8407 266.2699 15.08843786 60501,6917.869,95.437,540.419,539.048,0.0
53184.0,STARLINK-4257,PAYLOAD,2023-08-12 11:02:48,15.08838083,0.0001034,53.2171,24.5597,82.3357,277.7752,5.7486e-05,6.27e-06,0.0,0 STARLINK-4257,1 53184U 22083BE  23224.46028105  .00000627  00000-0  57486-4 0  9994,2 53184  53.2171  24.5597 0001034  82.3357 277.7752 15.08838083 60614,6917.886,95.438,540.467,539.036,0.0
53184.0,STARLINK-4257,PAYLOAD,2023-08-13 17:15:08,15.08836998,0.0001059,53.2173,18.9081,97.5644,262.5468,4.9221e-05,4.96e-06,0.0,0 STARLINK-4257,1 53184U 22083BE  23225.71884284  .00000496  00000-0  49221-4 0  9993,2 53184  53.2173  18.9081 0001059  97.5644 262.5468 15.08836998 60805,6917.89,95.438,540.487,539.022,0.0
53184.0,STARLINK-4257,PAYLOAD,2023-08-15 10:35:09,15.08836653,0.0001054,53.2173,11.1772,88.9421,271.1691,6.4479e-05,7.38e-06,0.0,0 STARLINK-4257,1 53184U 22083BE  23227.44108495  .00000738  00000-0  64479-4 0  9999,2 53184  53.2173  11.1772 0001054  88.9421 271.1691 15.08836653 61060,6917.891,95.438,540.485,539.026,0.0
53184.0,STARLINK-4257,PAYLOAD,2023-08-16 18:22:52,15.08838331,0.0001325,53.2178,5.2288,89.7981,270.3163,7.3133e-05,8.76e-06,0.0,0 STARLINK-4257,1 53184U 22083BE  23228.76588992  .00000876  00000-0  73133-4 0  9999,2 53184  53.2178   5.2288 0001325  89.7981 270.3163 15.08838331 61264,6917.885,95.438,540.667,538.834,0.0
53184.0,STARLINK-4257,PAYLOAD,2023-08-17 10:16:43,15.0884389,0.0001334,53.2173,2.2563,81.3603,278.754,0.00012921,1.769e-05,0.0,0 STARLINK-4257,1 53184U 22083BE  23229.42828447  .00001769  00000-0  12921-3 0  9994,2 53184  53.2173   2.2563 0001334  81.3603 278.7540 15.08843890 61369,6917.868,95.437,540.656,538.811,0.0
53184.0,STARLINK-4257,PAYLOAD,2023-08-18 08:32:08,15.08837591,0.0001322,53.2183,358.0956,79.6162,280.4979,0.00010844,1.438e-05,0.0,0 STARLINK-4257,1 53184U 22083BE  23230.35564823  .00001438  00000-0  10844-3 0  9998,2 53184  53.2183 358.0956 0001322  79.6162 280.4979 15.08837591 61508,6917.888,95.438,540.667,538.838,0.0
53184.0,STARLINK-4257,PAYLOAD,2023-08-19 14:44:27,15.08843938,0.0001318,53.2168,352.4426,95.4543,264.66,5.5017e-05,5.88e-06,0.0,0 STARLINK-4257,1 53184U 22083BE  23231.61420396  .00000588  00000-0  55017-4 0  9991,2 53184  53.2168 352.4426 0001318  95.4543 264.6600 15.08843938 61692,6917.868,95.437,540.645,538.822,0.0
53184.0,STARLINK-4257,PAYLOAD,2023-08-20 12:59:51,15.08837036,0.0001211,53.2169,348.2799,99.2331,260.8798,5.7572e-05,6.28e-06,0.0,0 STARLINK-4257,1 53184U 22083BE  23232.54156827  .00000628  00000-0  57572-4 0  9992,2 53184  53.2169 348.2799 0001211  99.2331 260.8798 15.08837036 61832,6917.889,95.438,540.592,538.917,0.0
53184.0,STARLINK-4257,PAYLOAD,2023-08-20 17:46:00,15.08843161,0.000102,53.2182,347.3881,99.7835,260.3272,8.4374e-05,1.055e-05,0.0,0 STARLINK-4257,1 53184U 22083BE  23232.74028389  .00001055  00000-0  84374-4 0  9990,2 53184  53.2182 347.3881 0001020  99.7835 260.3272 15.08843161 61862,6917.871,95.437,540.441,539.03,0.0
53184.0,STARLINK-4257,PAYLOAD,2023-08-21 14:26:01,15.08841064,0.000107,53.2178,343.5229,89.1798,270.9317,7.7254e-05,9.42e-06,0.0,0 STARLINK-4257,1 53184U 22083BE  23233.60140720  .00000942  00000-0  77254-4 0  9993,2 53184  53.2178 343.5229 0001070  89.1798 270.9317 15.08841064 61998,6917.877,95.437,540.482,539.002,0.0
53184.0,STARLINK-4257,PAYLOAD,2023-08-22 07:55:16,15.08834145,0.0001078,53.2183,340.2518,90.3698,269.7418,-3.1013e-06,-3.37e-06,0.0,0 STARLINK-4257,1 53184U 22083BE  23234.33005678 -.00000337  00000-0 -31013-5 0  9990,2 53184  53.2183 340.2518 0001078  90.3698 269.7418 15.08834145 62104,6917.898,95.438,540.509,539.018,0.0
53184.0,STARLINK-4257,PAYLOAD,2023-08-23 12:32:12,15.08845839,0.0001237,53.2198,334.9006,93.5337,266.5796,0.00011234,1.501e-05,0.0,0 STARLINK-4257,1 53184U 22083BE  23235.52236869  .00001501  00000-0  11234-3 0  9993,2 53184  53.2198 334.9006 0001237  93.5337 266.5796 15.08845839 62289,6917.863,95.437,540.583,538.872,0.0
53184.0,STARLINK-4257,PAYLOAD,2023-08-24 10:47:37,15.08839802,0.0001235,53.2175,330.7359,96.6017,263.5115,0.00012104,1.639e-05,0.0,0 STARLINK-4257,1 53184U 22083BE  23236.44973457  .00001639  00000-0  12104-3 0  9995,2 53184  53.2175 330.7359 0001235  96.6017 263.5115 15.08839802 61796,6917.881,95.438,540.6,538.892,0.0
